H1 CPF  1  MCC 2022  8 30 17  7421 larets
H2  0304206 5557    27944 2022 08 29 23 45 00 2022 09 03 23 57 00   180 1 1  0 0 0
H9
10 0 59820 85500.000000 0     -5339524.551     -3335214.989     -3227929.749
10 0 59820 85680.000000 0     -4881459.748     -2708596.176     -4348326.701
10 0 59820 85860.000000 0     -4229497.876     -1998690.019     -5310493.026
10 0 59820 86040.000000 0     -3405645.120     -1236058.577     -6079712.266
10 0 59820 86220.000000 0     -2438807.870      -452402.268     -6628314.545
10 0 59821     0.000000 0     -1363752.999       320736.385     -6936595.060
10 0 59821   180.000000 0      -219861.792      1053208.276     -6993451.867
10 0 59821   360.000000 0       950276.585      1717396.618     -6796746.823
10 0 59821   540.000000 0      2102401.030      2289229.659     -6353393.040
10 0 59821   720.000000 0      3192211.408      2749042.982     -5679156.637
10 0 59821   900.000000 0      4177045.240      3082261.498     -4798165.784
10 0 59821  1080.000000 0      5017549.002      3279880.687     -3742134.419
10 0 59821  1260.000000 0      5679285.821      3338725.473     -2549296.864
10 0 59821  1440.000000 0      6134202.801      3261469.864     -1263074.082
10 0 59821  1620.000000 0      6361886.529      3056407.348        69495.004
10 0 59821  1800.000000 0      6350530.198      2736971.953      1399500.067
10 0 59821  1980.000000 0      6097551.804      2321030.558      2678007.565
10 0 59821  2160.000000 0      5609824.534      1829985.174      3857928.725
10 0 59821  2340.000000 0      4903497.573      1287726.357      4895818.472
10 0 59821  2520.000000 0      4003419.885       719497.853      5753514.230
10 0 59821  2700.000000 0      2942204.988       150733.101      6399553.041
10 0 59821  2880.000000 0      1758981.298      -394076.346      6810309.285
10 0 59821  3060.000000 0       497899.940      -892428.341      6970829.149
10 0 59821  3240.000000 0      -793550.670     -1324737.616      6875346.653
10 0 59821  3420.000000 0     -2066355.893     -1675106.239      6527465.082
10 0 59821  3600.000000 0     -3271844.098     -1931908.474      5940011.062
10 0 59821  3780.000000 0     -4363560.257     -2088174.259      5134578.117
10 0 59821  3960.000000 0     -5299088.735     -2141765.513      4140751.847
10 0 59821  4140.000000 0     -6041739.697     -2095331.481      2995030.433
10 0 59821  4320.000000 0     -6562028.076     -1956045.334      1739483.588
10 0 59821  4500.000000 0     -6838885.957     -1735139.619       420189.882
10 0 59821  4680.000000 0     -6860536.265     -1447257.405      -914495.632
10 0 59821  4860.000000 0     -6624980.144     -1109652.749     -2215759.972
10 0 59821  5040.000000 0     -6140076.472      -741287.413     -3436153.757
10 0 59821  5220.000000 0     -5423219.646      -361873.148     -4531335.779
10 0 59821  5400.000000 0     -4500639.694         9095.198     -5461669.020
10 0 59821  5580.000000 0     -3406369.991       353264.629     -6193608.227
10 0 59821  5760.000000 0     -2180939.789       654263.537     -6700837.222
10 0 59821  5940.000000 0      -869858.609       898422.293     -6965136.078
10 0 59821  6120.000000 0       478052.630      1075352.072     -6976971.717
10 0 59821  6300.000000 0      1812428.288      1178364.608     -6735811.199
10 0 59821  6480.000000 0      3083187.372      1204722.130     -6250161.336
10 0 59821  6660.000000 0      4242375.324      1155709.599     -5537314.872
10 0 59821  6840.000000 0      5245958.819      1036524.151     -4622808.897
10 0 59821  7020.000000 0      6055524.342       855985.057     -3539596.623
10 0 59821  7200.000000 0      6639810.619       626070.276     -2326933.331
10 0 59821  7380.000000 0      6976004.920       361295.245     -1029000.406
10 0 59821  7560.000000 0      7050729.229        77958.560       306700.373
10 0 59821  7740.000000 0      6860649.490      -206708.777      1631116.677
10 0 59821  7920.000000 0      6412670.158      -475448.923      2895505.191
10 0 59821  8100.000000 0      5723688.305      -711888.143      4053296.157
10 0 59821  8280.000000 0      4819920.002      -901401.697      5061865.991
10 0 59821  8460.000000 0      3735841.562     -1031887.724      5884142.773
10 0 59821  8640.000000 0      2512799.567     -1094407.189      6489975.402
10 0 59821  8820.000000 0      1197368.166     -1083663.209      6857221.660
10 0 59821  9000.000000 0      -160475.561      -998300.693      6972529.245
10 0 59821  9180.000000 0     -1509284.562      -841012.498      6831787.826
10 0 59821  9360.000000 0     -2798105.706      -618450.375      6440252.577
10 0 59821  9540.000000 0     -3978413.236      -340943.131      5812346.724
10 0 59821  9720.000000 0     -5005956.461       -22033.647      4971146.665
10 0 59821  9900.000000 0     -5842455.256       322147.427      3947550.359
10 0 59821 10080.000000 0     -6457069.992       673646.750      2779149.955
10 0 59821 10260.000000 0     -6827583.803      1013559.786      1508847.118
10 0 59821 10440.000000 0     -6941243.953      1322966.483       183254.327
10 0 59821 10620.000000 0     -6795214.832      1583883.486     -1149057.325
10 0 59821 10800.000000 0     -6396614.297      1780182.497     -2439383.061
10 0 59821 10980.000000 0     -5762142.080      1898428.818     -3640698.000
10 0 59821 11160.000000 0     -4917319.923      1928597.099     -4709385.170
10 0 59821 11340.000000 0     -3895392.292      1864626.955     -5606796.425
10 0 59821 11520.000000 0     -2735959.748      1704799.134     -6300593.397
10 0 59821 11700.000000 0     -1483415.747      1451920.211     -6765839.523
10 0 59821 11880.000000 0      -185247.859      1113311.656     -6985820.429
10 0 59821 12060.000000 0      1109726.633       700606.617     -6952583.313
10 0 59821 12240.000000 0      2353143.336       229362.806     -6667205.718
10 0 59821 12420.000000 0      3498852.419      -281503.017     -6139779.642
10 0 59821 12600.000000 0      4504603.306      -810442.696     -5389105.950
10 0 59821 12780.000000 0      5333604.335     -1334147.888     -4442103.487
10 0 59821 12960.000000 0      5955912.275     -1828540.110     -3332930.796
10 0 59821 13140.000000 0      6349588.123     -2269842.129     -2101823.300
10 0 59821 13320.000000 0      6501559.423     -2635685.346      -793671.275
10 0 59821 13500.000000 0      6408135.740     -2906197.789       543617.466
10 0 59821 13680.000000 0      6075140.531     -3065014.943      1860908.440
10 0 59821 13860.000000 0      5517638.682     -3100155.745      3109709.613
10 0 59821 14040.000000 0      4759263.553     -3004712.203      4244025.335
10 0 59821 14220.000000 0      3831185.469     -2777311.992      5222103.663
10 0 59821 14400.000000 0      2770780.156     -2422336.570      6008005.554
10 0 59821 14580.000000 0      1620061.614     -1949880.112      6572928.810
10 0 59821 14760.000000 0       423965.718     -1375456.853      6896242.326
10 0 59821 14940.000000 0      -771441.636      -719472.179      6966206.897
10 0 59821 15120.000000 0     -1920757.864        -6478.495      6780369.780
10 0 59821 15300.000000 0     -2980976.655       735756.446      6345633.972
10 0 59821 15480.000000 0     -3913106.777      1477338.026      5678003.622
10 0 59821 15660.000000 0     -4683625.906      2187451.857      4802010.628
10 0 59821 15840.000000 0     -5265718.508      2835647.981      3749829.946
10 0 59821 16020.000000 0     -5640242.196      3393149.435      2560103.272
10 0 59821 16200.000000 0     -5796382.404      3834126.165      1276513.047
10 0 59821 16380.000000 0     -5731965.542      4136875.868       -53848.888
10 0 59821 16560.000000 0     -5453407.515      4284845.548     -1382251.510
10 0 59821 16740.000000 0     -4975305.520      4267444.290     -2660154.136
10 0 59821 16920.000000 0     -4319690.457      4080602.810     -3841016.094
10 0 59821 17100.000000 0     -3514986.993      3727053.177     -4881996.589
10 0 59821 17280.000000 0     -2594748.530      3216326.842     -5745476.080
10 0 59821 17460.000000 0     -1596239.889      2564482.348     -6400354.476
10 0 59821 17640.000000 0      -558927.198      1793578.770     -6823098.951
10 0 59821 17820.000000 0       477061.441       930919.852     -6998514.888
10 0 59821 18000.000000 0      1472448.243         8101.095     -6920240.767
10 0 59821 18180.000000 0      2390255.029      -940116.182     -6590964.423
10 0 59821 18360.000000 0      3197144.684     -1877074.519     -6022351.996
10 0 59821 18540.000000 0      3864620.097     -2765597.662     -5234694.745
10 0 59821 18720.000000 0      4370049.653     -3569445.231     -4256269.449
10 0 59821 18900.000000 0      4697473.685     -4254792.550     -3122403.297
10 0 59821 19080.000000 0      4838159.412     -4791672.505     -1874265.658
10 0 59821 19260.000000 0      4790874.365     -5155318.125      -557406.475
10 0 59821 19440.000000 0      4561847.531     -5327332.970       779915.199
10 0 59821 19620.000000 0      4164410.100     -5296616.586      2088544.509
10 0 59821 19800.000000 0      3618327.531     -5059987.625      3320303.398
10 0 59821 19980.000000 0      2948855.927     -4622469.015      4429829.401
10 0 59821 20160.000000 0      2185575.747     -3997217.854      5376297.520
10 0 59821 20340.000000 0      1361066.725     -3205105.698      6124948.523
10 0 59821 20520.000000 0       509490.899     -2273974.045      6648364.352
10 0 59821 20700.000000 0      -334845.999     -1237606.584      6927445.487
10 0 59821 20880.000000 0     -1138888.362      -134466.529      6952074.525
10 0 59821 21060.000000 0     -1872130.191       993756.948      6721457.383
10 0 59821 21240.000000 0     -2507777.322      2103739.894      6244134.452
10 0 59821 21420.000000 0     -3023732.872      3152197.751      5537666.581
10 0 59821 21600.000000 0     -3403375.143      4097588.197      4628005.154
10 0 59821 21780.000000 0     -3636103.248      4901781.710      3548556.417
10 0 59821 21960.000000 0     -3717625.369      5531632.632      2338960.528
99
